{
  "type": "FeatureCollection",
  "features": [
    {
      "type": "Feature",
      "properties": {
        "norad_id": 33765,
        "name": "COSMOS 2251 DEB",
        "group": "cosmos-2251-debris",
        "lat": 18.860857512625536,
        "lon": -18.130735970441854,
        "alt_km": 542.3077960207002,
        "timestamp": "2025-12-15T10:55:21.537084+00:00",
        "meta_object_name": "COSMOS 2251 DEB",
        "meta_object_id": "1993-036N",
        "meta_epoch": "2025-12-14T21:48:18.080640",
        "meta_mean_motion": 15.10139315,
        "meta_eccentricity": 0.00651166,
        "meta_inclination": 74.008,
        "meta_ra_of_asc_node": 168.6216,
        "meta_arg_of_pericenter": 260.382,
        "meta_mean_anomaly": 170.4321,
        "meta_ephemeris_type": 0,
        "meta_classification_type": "U",
        "meta_norad_cat_id": 33765,
        "meta_element_set_no": 999,
        "meta_rev_at_epoch": 89651,
        "meta_bstar": 0.0012084787,
        "meta_mean_motion_dot": 0.00020747,
        "meta_mean_motion_ddot": 0,
        "tle_line1": "1 33765U 93036N   25348.90854260  .00020747  00000+0  12085-2 0  9998",
        "tle_line2": "2 33765  74.0080 168.6216 0065116 260.3820 170.4321 15.10139315896511"
      },
      "geometry": {
        "type": "Point",
        "coordinates": [
          -18.130735970441854,
          18.860857512625536
        ]
      }
    },
    {
      "type": "Feature",
      "properties": {
        "norad_id": 33766,
        "name": "COSMOS 2251 DEB",
        "group": "cosmos-2251-debris",
        "lat": -0.24350674680133857,
        "lon": 129.97935229322002,
        "alt_km": 736.9483340800289,
        "timestamp": "2025-12-15T10:55:21.537095+00:00",
        "meta_object_name": "COSMOS 2251 DEB",
        "meta_object_id": "1993-036P",
        "meta_epoch": "2025-12-14T19:51:53.606592",
        "meta_mean_motion": 14.34941069,
        "meta_eccentricity": 0.00642644,
        "meta_inclination": 74.1856,
        "meta_ra_of_asc_node": 131.1873,
        "meta_arg_of_pericenter": 333.989,
        "meta_mean_anomaly": 25.8037,
        "meta_ephemeris_type": 0,
        "meta_classification_type": "U",
        "meta_norad_cat_id": 33766,
        "meta_element_set_no": 999,
        "meta_rev_at_epoch": 87775,
        "meta_bstar": 0.00046907585,
        "meta_mean_motion_dot": 1.341e-05,
        "meta_mean_motion_ddot": 0,
        "tle_line1": "1 33766U 93036P   25348.82770378  .00001341  00000+0  46908-3 0  9998",
        "tle_line2": "2 33766  74.1856 131.1873 0064264 333.9890  25.8037 14.34941069877759"
      },
      "geometry": {
        "type": "Point",
        "coordinates": [
          129.97935229322002,
          -0.24350674680133857
        ]
      }
    },
    {
      "type": "Feature",
      "properties": {
        "norad_id": 33768,
        "name": "COSMOS 2251 DEB",
        "group": "cosmos-2251-debris",
        "lat": -69.20977728770733,
        "lon": 84.27898441640316,
        "alt_km": 1160.0544882494905,
        "timestamp": "2025-12-15T10:55:21.537106+00:00",
        "meta_object_name": "COSMOS 2251 DEB",
        "meta_object_id": "1993-036R",
        "meta_epoch": "2025-12-14T21:43:37.485408",
        "meta_mean_motion": 13.58456551,
        "meta_eccentricity": 0.03664328,
        "meta_inclination": 74.0677,
        "meta_ra_of_asc_node": 216.3729,
        "meta_arg_of_pericenter": 13.6406,
        "meta_mean_anomaly": 78.7891,
        "meta_ephemeris_type": 0,
        "meta_classification_type": "U",
        "meta_norad_cat_id": 33768,
        "meta_element_set_no": 999,
        "meta_rev_at_epoch": 83325,
        "meta_bstar": 0.00034554214,
        "meta_mean_motion_dot": 3.69e-06,
        "meta_mean_motion_ddot": 0,
        "tle_line1": "1 33768U 93036R   25348.90529497  .00000369  00000+0  34554-3 0  9996",
        "tle_line2": "2 33768  74.0677 216.3729 0366432  13.6406  78.7891 13.58456551833258"
      },
      "geometry": {
        "type": "Point",
        "coordinates": [
          84.27898441640316,
          -69.20977728770733
        ]
      }
    },
    {
      "type": "Feature",
      "properties": {
        "norad_id": 33779,
        "name": "COSMOS 2251 DEB",
        "group": "cosmos-2251-debris",
        "lat": -29.969716838353698,
        "lon": 155.96114223149715,
        "alt_km": 672.6777706390712,
        "timestamp": "2025-12-15T10:55:21.537117+00:00",
        "meta_object_name": "COSMOS 2251 DEB",
        "meta_object_id": "1993-036U",
        "meta_epoch": "2025-12-14T18:48:26.043264",
        "meta_mean_motion": 14.70508504,
        "meta_eccentricity": 0.00168554,
        "meta_inclination": 74.0443,
        "meta_ra_of_asc_node": 166.7588,
        "meta_arg_of_pericenter": 199.9402,
        "meta_mean_anomaly": 175.4946,
        "meta_ephemeris_type": 0,
        "meta_classification_type": "U",
        "meta_norad_cat_id": 33779,
        "meta_element_set_no": 999,
        "meta_rev_at_epoch": 88558,
        "meta_bstar": 0.0017246027,
        "meta_mean_motion_dot": 0.00010471,
        "meta_mean_motion_ddot": 0,
        "tle_line1": "1 33779U 93036U   25348.78363476  .00010471  00000+0  17246-2 0  9990",
        "tle_line2": "2 33779  74.0443 166.7588 0016855 199.9402 175.4946 14.70508504885587"
      },
      "geometry": {
        "type": "Point",
        "coordinates": [
          155.96114223149715,
          -29.969716838353698
        ]
      }
    },
    {
      "type": "Feature",
      "properties": {
        "norad_id": 33782,
        "name": "COSMOS 2251 DEB",
        "group": "cosmos-2251-debris",
        "lat": 22.85695365782375,
        "lon": 85.59331203100788,
        "alt_km": 771.1111027721336,
        "timestamp": "2025-12-15T10:55:21.537128+00:00",
        "meta_object_name": "COSMOS 2251 DEB",
        "meta_object_id": "1993-036X",
        "meta_epoch": "2025-12-14T19:20:31.568352",
        "meta_mean_motion": 14.40455206,
        "meta_eccentricity": 0.00208486,
        "meta_inclination": 74.0335,
        "meta_ra_of_asc_node": 273.725,
        "meta_arg_of_pericenter": 338.1498,
        "meta_mean_anomaly": 52.8101,
        "meta_ephemeris_type": 0,
        "meta_classification_type": "U",
        "meta_norad_cat_id": 33782,
        "meta_element_set_no": 999,
        "meta_rev_at_epoch": 88156,
        "meta_bstar": 0.00044766699,
        "meta_mean_motion_dot": 1.4e-05,
        "meta_mean_motion_ddot": 0,
        "tle_line1": "1 33782U 93036X   25348.80592093  .00001400  00000+0  44767-3 0  9997",
        "tle_line2": "2 33782  74.0335 273.7250 0020848 338.1498  52.8101 14.40455206881567"
      },
      "geometry": {
        "type": "Point",
        "coordinates": [
          85.59331203100788,
          22.85695365782375
        ]
      }
    },
    {
      "type": "Feature",
      "properties": {
        "norad_id": 33785,
        "name": "COSMOS 2251 DEB",
        "group": "cosmos-2251-debris",
        "lat": -54.55503778828903,
        "lon": 30.612510522626213,
        "alt_km": 656.071993760338,
        "timestamp": "2025-12-15T10:55:21.537139+00:00",
        "meta_object_name": "COSMOS 2251 DEB",
        "meta_object_id": "1993-036AA",
        "meta_epoch": "2025-12-14T16:09:08.991936",
        "meta_mean_motion": 14.70544995,
        "meta_eccentricity": 0.00224675,
        "meta_inclination": 73.8674,
        "meta_ra_of_asc_node": 56.1373,
        "meta_arg_of_pericenter": 355.2,
        "meta_mean_anomaly": 128.3859,
        "meta_ephemeris_type": 0,
        "meta_classification_type": "U",
        "meta_norad_cat_id": 33785,
        "meta_element_set_no": 999,
        "meta_rev_at_epoch": 88535,
        "meta_bstar": 0.0014855896,
        "meta_mean_motion_dot": 9.035e-05,
        "meta_mean_motion_ddot": 0,
        "tle_line1": "1 33785U 93036AA  25348.67302074  .00009035  00000+0  14856-2 0  9990",
        "tle_line2": "2 33785  73.8674  56.1373 0022467 355.2000 128.3859 14.70544995885357"
      },
      "geometry": {
        "type": "Point",
        "coordinates": [
          30.612510522626213,
          -54.55503778828903
        ]
      }
    },
    {
      "type": "Feature",
      "properties": {
        "norad_id": 33789,
        "name": "COSMOS 2251 DEB",
        "group": "cosmos-2251-debris",
        "lat": 38.85682786042718,
        "lon": 96.10571227395941,
        "alt_km": 1090.4833917231854,
        "timestamp": "2025-12-15T10:55:21.537150+00:00",
        "meta_object_name": "COSMOS 2251 DEB",
        "meta_object_id": "1993-036AE",
        "meta_epoch": "2025-12-14T23:12:37.254240",
        "meta_mean_motion": 13.88800415,
        "meta_eccentricity": 0.02401128,
        "meta_inclination": 74.0645,
        "meta_ra_of_asc_node": 83.626,
        "meta_arg_of_pericenter": 198.7605,
        "meta_mean_anomaly": 284.1736,
        "meta_ephemeris_type": 0,
        "meta_classification_type": "U",
        "meta_norad_cat_id": 33789,
        "meta_element_set_no": 999,
        "meta_rev_at_epoch": 85126,
        "meta_bstar": 0.00074512916,
        "meta_mean_motion_dot": 1.109e-05,
        "meta_mean_motion_ddot": 0,
        "tle_line1": "1 33789U 93036AE  25348.96709785  .00001109  00000+0  74513-3 0  9997",
        "tle_line2": "2 33789  74.0645  83.6260 0240112 198.7605 284.1736 13.88800415851260"
      },
      "geometry": {
        "type": "Point",
        "coordinates": [
          96.10571227395941,
          38.85682786042718
        ]
      }
    }
  ]
}